{
  "norad_id": 66278,
  "name": "STARLINK-35713",
  "history": [
    {
      "epoch": "2026-03-28T11:05:30.015744",
      "apogee_km": 476.04516821667585,
      "perigee_km": 474.37665213446326,
      "latitude_deg": -35.138835263761194,
      "longitude_deg": 132.16668416000903,
      "semi_major_axis_km": 6853.347910175569,
      "eccentricity": 0.00012173,
      "inclination_deg": 53.1585,
      "raan_deg": 103.8328,
      "arg_perigee_deg": 87.0729,
      "mean_anomaly_deg": 273.0411,
      "mean_motion_rev_day": 15.30201393
    },
    {
      "epoch": "2026-03-29T04:20:04.831872",
      "apogee_km": 475.9439127318119,
      "perigee_km": 474.242940939871,
      "latitude_deg": 18.170909300544775,
      "longitude_deg": -158.8612979198806,
      "semi_major_axis_km": 6853.230426835841,
      "eccentricity": 0.0001241,
      "inclination_deg": 53.1587,
      "raan_deg": 100.4937,
      "arg_perigee_deg": 105.7632,
      "mean_anomaly_deg": 254.3506,
      "mean_motion_rev_day": 15.30240741
    }
  ]
}